FENGYUN 1C DEB          
1 31625U 99025CAF 26063.48977146  .00001683  00000+0  34301-3 0  9996
2 31625  98.7971 158.9300 0149568 126.2928 295.9541 14.55609674995824
FENGYUN 1C DEB          
1 31627U 99025CAH 26046.92151993  .00003000  00000+0  10316-2 0  9996
2 31627  98.5244  99.0758 0049280 320.5958  39.1647 14.36065873657029
FENGYUN 1C DEB          
1 31628U 99025CAJ 26062.63058860  .00003105  00000+0  24050-2 0  9998
2 31628 102.2716 307.4615 0170243  25.8433 335.1095 13.87272785944215
FENGYUN 1C DEB          
1 31629U 99025CAK 26063.66635785  .00007289  00000+0  35445-2 0  9997
2 31629 102.1279 143.7338 0109594 181.6061 178.4763 14.15578787956059
FENGYUN 1C DEB          
1 31630U 99025CAL 26059.21886062  .00022539  00000+0  10243-2 0  9995
2 31630  98.0950 235.9073 0154631  94.7043 267.1863 15.10624951997587
FENGYUN 1C DEB          
1 31631U 99025CAM 26060.60084341  .00070880  00000+0  86678-2 0  9998
2 31631  99.3426 348.7334 0052061  75.6442 285.0538 14.81913500651367
FENGYUN 1C DEB          
1 31633U 99025CAP 26051.25718913  .00001311  00000+0  80040-3 0  9991
2 31633  98.7142  67.9055 0065892 338.2000  21.6368 14.06621595580612
FENGYUN 1C DEB          
1 31634U 99025CAQ 26058.89609196  .00000246  00000+0  21158-3 0  9992
2 31634  99.3546 111.4738 0090304 309.1820  50.1344 13.94745247575997
FENGYUN 1C DEB          
1 31639U 99025CAV 26063.07627523  .00000210  00000+0  20034-3 0  9990
2 31639  98.7539   8.5954 0160112 284.6958 135.3791 13.85207580948143
FENGYUN 1C DEB          
1 31642U 99025CAY 26062.45347050  .00000891  00000+0  31189-3 0  9997
2 31642  98.4936 148.2299 0119628  18.0345 342.5029 14.33605861981752
FENGYUN 1C DEB          
1 31644U 99025CBA 26061.92011753  .00008498  00000+0  12229-2 0  9992
2 31644  98.6659 321.5658 0150896 293.7422 130.0346 14.69105283722211
FENGYUN 1C DEB          
1 31646U 99025CBC 26045.84408481  .00000874  00000+0  47731-3 0  9992
2 31646  98.6879  72.0813 0034191  34.1902 326.1464 14.14274963640970
FENGYUN 1C DEB          
1 31648U 99025CBE 26059.84630482  .00005600  00000+0  28158-2 0  9990
2 31648 102.7951 281.6047 0045177 325.6315  34.1924 14.16595614730034
FENGYUN 1C DEB          
1 31655U 99025CBM 26053.07954028  .00003559  00000+0  33392-2 0  9999
2 31655  99.2999   0.9185 0293429 314.7231 103.5208 13.64674842606929
FENGYUN 1C DEB          
1 31656U 99025CBN 26062.96636197  .00010425  00000+0  27803-2 0  9992
2 31656  99.1979  63.7892 0021176 167.9650 222.6746 14.48495401976318
FENGYUN 1C DEB          
1 31657U 99025CBP 26039.06153619  .00005655  00000+0  36837-2 0  9997
2 31657 102.2158 327.1431 0147612 278.7453  79.7005 13.97833643636652
