[{"OBJECT_NAME":"FENGYUN 1C DEB","OBJECT_ID":"1999-025CAF","EPOCH":"2026-03-04T11:45:16.254144","MEAN_MOTION":14.55609674,"ECCENTRICITY":0.01495682,"INCLINATION":98.7971,"RA_OF_ASC_NODE":158.93,"ARG_OF_PERICENTER":126.2928,"MEAN_ANOMALY":295.9541,"EPHEMERIS_TYPE":0,"CLASSIFICATION_TYPE":"U","NORAD_CAT_ID":31625,"ELEMENT_SET_NO":999,"REV_AT_EPOCH":99582,"BSTAR":0.00034301268,"MEAN_MOTION_DOT":1.683e-5,"MEAN_MOTION_DDOT":0},{"OBJECT_NAME":"FENGYUN 1C DEB","OBJECT_ID":"1999-025CAH","EPOCH":"2026-02-15T22:06:59.321952","MEAN_MOTION":14.36065873,"ECCENTRICITY":0.004928,"INCLINATION":98.5244,"RA_OF_ASC_NODE":99.0758,"ARG_OF_PERICENTER":320.5958,"MEAN_ANOMALY":39.1647,"EPHEMERIS_TYPE":0,"CLASSIFICATION_TYPE":"U","NORAD_CAT_ID":31627,"ELEMENT_SET_NO":999,"REV_AT_EPOCH":65702,"BSTAR":0.0010316,"MEAN_MOTION_DOT":3.0e-5,"MEAN_MOTION_DDOT":0},{"OBJECT_NAME":"FENGYUN 1C DEB","OBJECT_ID":"1999-025CAJ","EPOCH":"2026-03-03T15:08:02.855040","MEAN_MOTION":13.87272785,"ECCENTRICITY":0.0170243,"INCLINATION":102.2716,"RA_OF_ASC_NODE":307.4615,"ARG_OF_PERICENTER":25.8433,"MEAN_ANOMALY":335.1095,"EPHEMERIS_TYPE":0,"CLASSIFICATION_TYPE":"U","NORAD_CAT_ID":31628,"ELEMENT_SET_NO":999,"REV_AT_EPOCH":94421,"BSTAR":0.002405,"MEAN_MOTION_DOT":3.105e-5,"MEAN_MOTION_DDOT":0},{"OBJECT_NAME":"FENGYUN 1C DEB","OBJECT_ID":"1999-025CAK","EPOCH":"2026-03-04T15:59:33.318240","MEAN_MOTION":14.15578787,"ECCENTRICITY":0.0109594,"INCLINATION":102.1279,"RA_OF_ASC_NODE":143.7338,"ARG_OF_PERICENTER":181.6061,"MEAN_ANOMALY":178.4763,"EPHEMERIS_TYPE":0,"CLASSIFICATION_TYPE":"U","NORAD_CAT_ID":31629,"ELEMENT_SET_NO":999,"REV_AT_EPOCH":95605,"BSTAR":0.0035445,"MEAN_MOTION_DOT":7.289e-5,"MEAN_MOTION_DDOT":0},{"OBJECT_NAME":"FENGYUN 1C DEB","OBJECT_ID":"1999-025CAL","EPOCH":"2026-02-28T05:15:09.557568","MEAN_MOTION":15.10624951,"ECCENTRICITY":0.0154631,"INCLINATION":98.095,"RA_OF_ASC_NODE":235.9073,"ARG_OF_PERICENTER":94.7043,"MEAN_ANOMALY":267.1863,"EPHEMERIS_TYPE":0,"CLASSIFICATION_TYPE":"U","NORAD_CAT_ID":31630,"ELEMENT_SET_NO":999,"REV_AT_EPOCH":99758,"BSTAR":0.0010243,"MEAN_MOTION_DOT":0.00022539,"MEAN_MOTION_DDOT":0},{"OBJECT_NAME":"FENGYUN 1C DEB","OBJECT_ID":"1999-025CAM","EPOCH":"2026-03-01T14:25:12.870624","MEAN_MOTION":14.819135,"ECCENTRICITY":0.00520613,"INCLINATION":99.3426,"RA_OF_ASC_NODE":348.7334,"ARG_OF_PERICENTER":75.6442,"MEAN_ANOMALY":285.0538,"EPHEMERIS_TYPE":0,"CLASSIFICATION_TYPE":"U","NORAD_CAT_ID":31631,"ELEMENT_SET_NO":999,"REV_AT_EPOCH":65136,"BSTAR":0.0086678456,"MEAN_MOTION_DOT":0.0007088,"MEAN_MOTION_DDOT":0},{"OBJECT_NAME":"FENGYUN 1C DEB","OBJECT_ID":"1999-025CAP","EPOCH":"2026-02-20T06:10:21.140832","MEAN_MOTION":14.06621595,"ECCENTRICITY":0.00658928,"INCLINATION":98.7142,"RA_OF_ASC_NODE":67.9055,"ARG_OF_PERICENTER":338.2,"MEAN_ANOMALY":21.6368,"EPHEMERIS_TYPE":0,"CLASSIFICATION_TYPE":"U","NORAD_CAT_ID":31633,"ELEMENT_SET_NO":999,"REV_AT_EPOCH":58061,"BSTAR":0.00080039882,"MEAN_MOTION_DOT":1.311e-5,"MEAN_MOTION_DDOT":0},{"OBJECT_NAME":"FENGYUN 1C DEB","OBJECT_ID":"1999-025CAQ","EPOCH":"2026-02-27T21:30:22.345344","MEAN_MOTION":13.94745247,"ECCENTRICITY":0.0090304,"INCLINATION":99.3546,"RA_OF_ASC_NODE":111.4738,"ARG_OF_PERICENTER":309.182,"MEAN_ANOMALY":50.1344,"EPHEMERIS_TYPE":0,"CLASSIFICATION_TYPE":"U","NORAD_CAT_ID":31634,"ELEMENT_SET_NO":999,"REV_AT_EPOCH":57599,"BSTAR":0.00021158,"MEAN_MOTION_DOT":2.46e-6,"MEAN_MOTION_DDOT":0},{"OBJECT_NAME":"FENGYUN 1C DEB","OBJECT_ID":"1999-025CAV","EPOCH":"2026-03-04T01:49:50.179872","MEAN_MOTION":13.8520758,"ECCENTRICITY":0.01601127,"INCLINATION":98.7539,"RA_OF_ASC_NODE":8.5954,"ARG_OF_PERICENTER":284.6958,"MEAN_ANOMALY":135.3791,"EPHEMERIS_TYPE":0,"CLASSIFICATION_TYPE":"U","NORAD_CAT_ID":31639,"ELEMENT_SET_NO":999,"REV_AT_EPOCH":94814,"BSTAR":0.00020033575,"MEAN_MOTION_DOT":2.1e-6,"MEAN_MOTION_DDOT":0},{"OBJECT_NAME":"FENGYUN 1C DEB","OBJECT_ID":"1999-025CAY","EPOCH":"2026-03-03T10:52:59.851200","MEAN_MOTION":14.33605861,"ECCENTRICITY":0.01196286,"INCLINATION":98.4936,"RA_OF_ASC_NODE":148.2299,"ARG_OF_PERICENTER":18.0345,"MEAN_ANOMALY":342.5029,"EPHEMERIS_TYPE":0,"CLASSIFICATION_TYPE":"U","NORAD_CAT_ID":31642,"ELEMENT_SET_NO":999,"REV_AT_EPOCH":98175,"BSTAR":0.0003118869,"MEAN_MOTION_DOT":8.91e-6,"MEAN_MOTION_DDOT":0},{"OBJECT_NAME":"FENGYUN 1C DEB","OBJECT_ID":"1999-025CBA","EPOCH":"2026-03-02T22:04:58.154592","MEAN_MOTION":14.69105283,"ECCENTRICITY":0.0150896,"INCLINATION":98.6659,"RA_OF_ASC_NODE":321.5658,"ARG_OF_PERICENTER":293.7422,"MEAN_ANOMALY":130.0346,"EPHEMERIS_TYPE":0,"CLASSIFICATION_TYPE":"U","NORAD_CAT_ID":31644,"ELEMENT_SET_NO":999,"REV_AT_EPOCH":72221,"BSTAR":0.0012229,"MEAN_MOTION_DOT":8.498e-5,"MEAN_MOTION_DDOT":0},{"OBJECT_NAME":"FENGYUN 1C DEB","OBJECT_ID":"1999-025CBC","EPOCH":"2026-02-14T20:15:28.927584","MEAN_MOTION":14.14274963,"ECCENTRICITY":0.00341912,"INCLINATION":98.6879,"RA_OF_ASC_NODE":72.0813,"ARG_OF_PERICENTER":34.1902,"MEAN_ANOMALY":326.1464,"EPHEMERIS_TYPE":0,"CLASSIFICATION_TYPE":"U","NORAD_CAT_ID":31646,"ELEMENT_SET_NO":999,"REV_AT_EPOCH":64097,"BSTAR":0.00047731091,"MEAN_MOTION_DOT":8.74e-6,"MEAN_MOTION_DDOT":0},{"OBJECT_NAME":"FENGYUN 1C DEB","OBJECT_ID":"1999-025CBE","EPOCH":"2026-02-28T20:18:40.736448","MEAN_MOTION":14.16595614,"ECCENTRICITY":0.00451772,"INCLINATION":102.7951,"RA_OF_ASC_NODE":281.6047,"ARG_OF_PERICENTER":325.6315,"MEAN_ANOMALY":34.1924,"EPHEMERIS_TYPE":0,"CLASSIFICATION_TYPE":"U","NORAD_CAT_ID":31648,"ELEMENT_SET_NO":999,"REV_AT_EPOCH":73003,"BSTAR":0.0028157702,"MEAN_MOTION_DOT":5.6e-5,"MEAN_MOTION_DDOT":0},{"OBJECT_NAME":"FENGYUN 1C DEB","OBJECT_ID":"1999-025CBM","EPOCH":"2026-02-22T01:54:32.280192","MEAN_MOTION":13.64674842,"ECCENTRICITY":0.02934299,"INCLINATION":99.2999,"RA_OF_ASC_NODE":0.9185,"ARG_OF_PERICENTER":314.7231,"MEAN_ANOMALY":103.5208,"EPHEMERIS_TYPE":0,"CLASSIFICATION_TYPE":"U","NORAD_CAT_ID":31655,"ELEMENT_SET_NO":999,"REV_AT_EPOCH":60692,"BSTAR":0.0033391893,"MEAN_MOTION_DOT":3.559e-5,"MEAN_MOTION_DDOT":0},{"OBJECT_NAME":"FENGYUN 1C DEB","OBJECT_ID":"1999-025CBN","EPOCH":"2026-03-03T23:11:33.674208","MEAN_MOTION":14.48495401,"ECCENTRICITY":0.0021176,"INCLINATION":99.1979,"RA_OF_ASC_NODE":63.7892,"ARG_OF_PERICENTER":167.965,"MEAN_ANOMALY":222.6746,"EPHEMERIS_TYPE":0,"CLASSIFICATION_TYPE":"U","NORAD_CAT_ID":31656,"ELEMENT_SET_NO":999,"REV_AT_EPOCH":97631,"BSTAR":0.0027803,"MEAN_MOTION_DOT":0.00010425,"MEAN_MOTION_DDOT":0},{"OBJECT_NAME":"FENGYUN 1C DEB","OBJECT_ID":"1999-025CBP","EPOCH":"2026-02-08T01:28:36.726816","MEAN_MOTION":13.97833643,"ECCENTRICITY":0.0147612,"INCLINATION":102.2158,"RA_OF_ASC_NODE":327.1431,"ARG_OF_PERICENTER":278.7453,"MEAN_ANOMALY":79.7005,"EPHEMERIS_TYPE":0,"CLASSIFICATION_TYPE":"U","NORAD_CAT_ID":31657,"ELEMENT_SET_NO":999,"REV_AT_EPOCH":63665,"BSTAR":0.0036837,"MEAN_MOTION_DOT":5.655e-5,"MEAN_MOTION_DDOT":0}]
